{
    "week": 294,
    "satellites": [
        {
            "Name": "BEIDOU-2 G6 (C02)",
            "Line1": "1 38953U 12059A   24329.59424539 -.00000163  00000+0  00000+0 0  9995",
            "Line2": "2 38953   2.9696  79.1847 0007131 290.1991 352.6073  1.00273959 44191",
            "SatelliteNumber": "38953",
            "Classification": "U",
            "LaunchYear": "12",
            "LaunchNumber": "059",
            "PieceOfLaunch": "A",
            "EpochYear": "24",
            "EpochDay": 329.59424539,
            "FirstDerivativeMeanMotion": -1.63e-06,
            "SecondDerivativeMeanMotion": "00000+0",
            "BSTAR": "00000+0",
            "SetNumber": "999",
            "Inclination": 2.9696,
            "RAAN": 79.1847,
            "Eccentricity": 0.0007131,
            "ArgumentOfPerigee": 290.1991,
            "MeanAnomaly": 352.6073,
            "MeanMotion": 1.00273959,
            "RevolutionNumber": "4419"
        },
        {
            "Name": "BEIDOU-3S IGSO-1S (C31)",
            "Line1": "1 40549U 15019A   24329.38886769 -.00000186  00000+0  00000+0 0  9997",
            "Line2": "2 40549  50.2767 302.2907 0035189 198.6127 159.5859  1.00269286 35356",
            "SatelliteNumber": "40549",
            "Classification": "U",
            "LaunchYear": "15",
            "LaunchNumber": "019",
            "PieceOfLaunch": "A",
            "EpochYear": "24",
            "EpochDay": 329.38886769,
            "FirstDerivativeMeanMotion": -1.86e-06,
            "SecondDerivativeMeanMotion": "00000+0",
            "BSTAR": "00000+0",
            "SetNumber": "999",
            "Inclination": 50.2767,
            "RAAN": 302.2907,
            "Eccentricity": 0.0035189,
            "ArgumentOfPerigee": 198.6127,
            "MeanAnomaly": 159.5859,
            "MeanMotion": 1.00269286,
            "RevolutionNumber": "3535"
        },
        {
            "Name": "BEIDOU-3S M2S (C58)",
            "Line1": "1 40748U 15037A   24329.61249747 -.00000075  00000+0  00000+0 0  9990",
            "Line2": "2 40748  55.3582 321.5729 0013108 260.2560  99.6062  1.86229259 63517",
            "SatelliteNumber": "40748",
            "Classification": "U",
            "LaunchYear": "15",
            "LaunchNumber": "037",
            "PieceOfLaunch": "A",
            "EpochYear": "24",
            "EpochDay": 329.61249747,
            "FirstDerivativeMeanMotion": -7.5e-07,
            "SecondDerivativeMeanMotion": "00000+0",
            "BSTAR": "00000+0",
            "SetNumber": "999",
            "Inclination": 55.3582,
            "RAAN": 321.5729,
            "Eccentricity": 0.0013108,
            "ArgumentOfPerigee": 260.256,
            "MeanAnomaly": 99.6062,
            "MeanMotion": 1.86229259,
            "RevolutionNumber": "6351"
        },
        {
            "Name": "BEIDOU-3S M1S (C57)",
            "Line1": "1 40749U 15037B   24328.81182492 -.00000074  00000+0  00000+0 0  9994",
            "Line2": "2 40749  55.3614 321.5867 0004258 320.8774  39.1021  1.86227670 63501",
            "SatelliteNumber": "40749",
            "Classification": "U",
            "LaunchYear": "15",
            "LaunchNumber": "037",
            "PieceOfLaunch": "B",
            "EpochYear": "24",
            "EpochDay": 328.81182492,
            "FirstDerivativeMeanMotion": -7.4e-07,
            "SecondDerivativeMeanMotion": "00000+0",
            "BSTAR": "00000+0",
            "SetNumber": "999",
            "Inclination": 55.3614,
            "RAAN": 321.5867,
            "Eccentricity": 0.0004258,
            "ArgumentOfPerigee": 320.8774,
            "MeanAnomaly": 39.1021,
            "MeanMotion": 1.8622767,
            "RevolutionNumber": "6350"
        },
        {
            "Name": "BEIDOU-3S IGSO-2S (C56)",
            "Line1": "1 40938U 15053A   24328.84337961 -.00000164  00000+0  00000+0 0  9998",
            "Line2": "2 40938  50.1116 265.5366 0051853 189.3266   8.5923  1.00269813 33632",
            "SatelliteNumber": "40938",
            "Classification": "U",
            "LaunchYear": "15",
            "LaunchNumber": "053",
            "PieceOfLaunch": "A",
            "EpochYear": "24",
            "EpochDay": 328.84337961,
            "FirstDerivativeMeanMotion": -1.64e-06,
            "SecondDerivativeMeanMotion": "00000+0",
            "BSTAR": "00000+0",
            "SetNumber": "999",
            "Inclination": 50.1116,
            "RAAN": 265.5366,
            "Eccentricity": 0.0051853,
            "ArgumentOfPerigee": 189.3266,
            "MeanAnomaly": 8.5923,
            "MeanMotion": 1.00269813,
            "RevolutionNumber": "3363"
        },
        {
            "Name": "BEIDOU-2 IGSO-6 (C13)",
            "Line1": "1 41434U 16021A   24329.69589036 -.00000180  00000+0  00000+0 0  9990",
            "Line2": "2 41434  59.4169  43.7373 0055150 225.3244 142.0976  1.00284064 31768",
            "SatelliteNumber": "41434",
            "Classification": "U",
            "LaunchYear": "16",
            "LaunchNumber": "021",
            "PieceOfLaunch": "A",
            "EpochYear": "24",
            "EpochDay": 329.69589036,
            "FirstDerivativeMeanMotion": -1.8e-06,
            "SecondDerivativeMeanMotion": "00000+0",
            "BSTAR": "00000+0",
            "SetNumber": "999",
            "Inclination": 59.4169,
            "RAAN": 43.7373,
            "Eccentricity": 0.005515,
            "ArgumentOfPerigee": 225.3244,
            "MeanAnomaly": 142.0976,
            "MeanMotion": 1.00284064,
            "RevolutionNumber": "3176"
        },
        {
            "Name": "BEIDOU-2 G7 (C03)",
            "Line1": "1 41586U 16037A   24329.59397328 -.00000340  00000+0  00000+0 0  9993",
            "Line2": "2 41586   1.7640  67.1262 0007011 339.0970 342.0940  1.00265763  1179",
            "SatelliteNumber": "41586",
            "Classification": "U",
            "LaunchYear": "16",
            "LaunchNumber": "037",
            "PieceOfLaunch": "A",
            "EpochYear": "24",
            "EpochDay": 329.59397328,
            "FirstDerivativeMeanMotion": -3.4e-06,
            "SecondDerivativeMeanMotion": "00000+0",
            "BSTAR": "00000+0",
            "SetNumber": "999",
            "Inclination": 1.764,
            "RAAN": 67.1262,
            "Eccentricity": 0.0007011,
            "ArgumentOfPerigee": 339.097,
            "MeanAnomaly": 342.094,
            "MeanMotion": 1.00265763,
            "RevolutionNumber": "117"
        },
        {
            "Name": "BEIDOU-3 M1 (C19)",
            "Line1": "1 43001U 17069A   24329.42439180 -.00000024  00000+0  00000+0 0  9997",
            "Line2": "2 43001  56.1968  81.9312 0008185 298.0010  61.9022  1.86231382 47994",
            "SatelliteNumber": "43001",
            "Classification": "U",
            "LaunchYear": "17",
            "LaunchNumber": "069",
            "PieceOfLaunch": "A",
            "EpochYear": "24",
            "EpochDay": 329.4243918,
            "FirstDerivativeMeanMotion": -2.4e-07,
            "SecondDerivativeMeanMotion": "00000+0",
            "BSTAR": "00000+0",
            "SetNumber": "999",
            "Inclination": 56.1968,
            "RAAN": 81.9312,
            "Eccentricity": 0.0008185,
            "ArgumentOfPerigee": 298.001,
            "MeanAnomaly": 61.9022,
            "MeanMotion": 1.86231382,
            "RevolutionNumber": "4799"
        },
        {
            "Name": "BEIDOU-3 M2 (C20)",
            "Line1": "1 43002U 17069B   24329.36198013 -.00000024  00000+0  00000+0 0  9998",
            "Line2": "2 43002  56.1956  81.9695 0005684 328.4928  31.4591  1.86230982 47980",
            "SatelliteNumber": "43002",
            "Classification": "U",
            "LaunchYear": "17",
            "LaunchNumber": "069",
            "PieceOfLaunch": "B",
            "EpochYear": "24",
            "EpochDay": 329.36198013,
            "FirstDerivativeMeanMotion": -2.4e-07,
            "SecondDerivativeMeanMotion": "00000+0",
            "BSTAR": "00000+0",
            "SetNumber": "999",
            "Inclination": 56.1956,
            "RAAN": 81.9695,
            "Eccentricity": 0.0005684,
            "ArgumentOfPerigee": 328.4928,
            "MeanAnomaly": 31.4591,
            "MeanMotion": 1.86230982,
            "RevolutionNumber": "4798"
        },
        {
            "Name": "BEIDOU-3 M7 (C27)",
            "Line1": "1 43107U 18003A   24326.96184143 -.00000076  00000+0  00000+0 0  9992",
            "Line2": "2 43107  54.8185 322.1849 0002303  62.5354 297.4970  1.86232485 46692",
            "SatelliteNumber": "43107",
            "Classification": "U",
            "LaunchYear": "18",
            "LaunchNumber": "003",
            "PieceOfLaunch": "A",
            "EpochYear": "24",
            "EpochDay": 326.96184143,
            "FirstDerivativeMeanMotion": -7.6e-07,
            "SecondDerivativeMeanMotion": "00000+0",
            "BSTAR": "00000+0",
            "SetNumber": "999",
            "Inclination": 54.8185,
            "RAAN": 322.1849,
            "Eccentricity": 0.0002303,
            "ArgumentOfPerigee": 62.5354,
            "MeanAnomaly": 297.497,
            "MeanMotion": 1.86232485,
            "RevolutionNumber": "4669"
        }
    ]
}